start=new Date('2022-11-22T00:00:00.000Z').valueOf();
sats=[{"ARG_OF_PERICENTER":"76.7142","MEAN_MOTION_DDOT":"0.0000000000000","CLASSIFICATION_TYPE":"U","INCLINATION":"53.2169","MEAN_MOTION_DOT":"-0.01154438","SEMIMAJOR_AXIS":"6882.705","LAUNCH_DATE":"2022-08-28","OBJECT_NAME":"STARLINK-4396","RA_OF_ASC_NODE":"227.7447","ELEMENT_SET_NO":"999","NORAD_CAT_ID":"53637","BSTAR":"-0.05672500000000","RCS_SIZE":"LARGE","ECCENTRICITY":"0.00013630","PERIOD":"94.711","PERIAPSIS":"503.632","OBJECT_ID":"2022-104BB","TLE_LINE1":"1 53637U 22104BB  22326.00001157 -.01154438  00000-0 -56725-1 0  9996","APOAPSIS":"505.509","REF_FRAME":"TEME","GP_ID":"218435812","TIME_SYSTEM":"UTC","CENTER_NAME":"EARTH","COUNTRY_CODE":"US","EPOCH":"2022-11-22T00:00:00.999648","MEAN_ANOMALY":"86.5558","FILE":"3666658","DECAY_DATE":null,"SITE":"AFETR","REV_AT_EPOCH":"130","TLE_LINE2":"2 53637  53.2169 227.7447 0001363  76.7142  86.5558 15.20421453  1303","OBJECT_TYPE":"PAYLOAD","MEAN_ELEMENT_THEORY":"SGP4","EPHEMERIS_TYPE":"0","MEAN_MOTION":"15.20421453"},{"INCLINATION":"53.2172","MEAN_MOTION_DDOT":"0.0000000000000","ARG_OF_PERICENTER":"88.5786","CLASSIFICATION_TYPE":"U","OBJECT_NAME":"STARLINK-4594","SEMIMAJOR_AXIS":"6880.257","MEAN_MOTION_DOT":"-0.01150161","LAUNCH_DATE":"2022-08-28","RA_OF_ASC_NODE":"227.6651","NORAD_CAT_ID":"53638","BSTAR":"-0.05516300000000","ELEMENT_SET_NO":"999","OBJECT_ID":"2022-104BC","APOAPSIS":"503.098","TLE_LINE1":"1 53638U 22104BC  22326.00001157 -.01150161  00000-0 -55163-1 0  9991","RCS_SIZE":"LARGE","PERIOD":"94.660","ECCENTRICITY":"0.00014180","PERIAPSIS":"501.146","TIME_SYSTEM":"UTC","CENTER_NAME":"EARTH","GP_ID":"218435976","REF_FRAME":"TEME","FILE":"3666658","COUNTRY_CODE":"US","MEAN_ANOMALY":"115.1521","EPOCH":"2022-11-22T00:00:00.999648","REV_AT_EPOCH":"130","DECAY_DATE":null,"SITE":"AFETR","TLE_LINE2":"2 53638  53.2172 227.6651 0001418  88.5786 115.1521 15.21233078  1304","OBJECT_TYPE":"PAYLOAD","MEAN_ELEMENT_THEORY":"SGP4","EPHEMERIS_TYPE":"0","MEAN_MOTION":"15.21233078"},{"EPHEMERIS_TYPE":"0","MEAN_MOTION":"15.21027171","REV_AT_EPOCH":"130","SITE":"AFETR","DECAY_DATE":null,"TLE_LINE2":"2 53639  53.2169 227.6862 0001395  88.4566 104.3488 15.21027171  1301","MEAN_ELEMENT_THEORY":"SGP4","OBJECT_TYPE":"PAYLOAD","TLE_LINE1":"1 53639U 22104BD  22326.00001157 -.01162818  00000-0 -56161-1 0  9993","APOAPSIS":"503.703","OBJECT_ID":"2022-104BD","PERIAPSIS":"501.783","RCS_SIZE":"LARGE","ECCENTRICITY":"0.00013950","PERIOD":"94.673","CENTER_NAME":"EARTH","TIME_SYSTEM":"UTC","REF_FRAME":"TEME","GP_ID":"218436462","FILE":"3666658","MEAN_ANOMALY":"104.3488","COUNTRY_CODE":"US","EPOCH":"2022-11-22T00:00:00.999648","INCLINATION":"53.2169","CLASSIFICATION_TYPE":"U","MEAN_MOTION_DDOT":"0.0000000000000","ARG_OF_PERICENTER":"88.4566","OBJECT_NAME":"STARLINK-4422","LAUNCH_DATE":"2022-08-28","SEMIMAJOR_AXIS":"6880.878","MEAN_MOTION_DOT":"-0.01162818","RA_OF_ASC_NODE":"227.6862","BSTAR":"-0.05616100000000","NORAD_CAT_ID":"53639","ELEMENT_SET_NO":"999"},{"MEAN_MOTION":"15.21288318","EPHEMERIS_TYPE":"0","TLE_LINE2":"2 53640  53.2172 227.6567 0001473 104.4579 103.4488 15.21288318  1301","SITE":"AFETR","DECAY_DATE":null,"REV_AT_EPOCH":"130","MEAN_ELEMENT_THEORY":"SGP4","OBJECT_TYPE":"PAYLOAD","PERIAPSIS":"500.942","PERIOD":"94.657","RCS_SIZE":"LARGE","ECCENTRICITY":"0.00014730","APOAPSIS":"502.969","TLE_LINE1":"1 53640U 22104BE  22326.00001157 -.01148703  00000-0 -54997-1 0  9997","OBJECT_ID":"2022-104BE","COUNTRY_CODE":"US","EPOCH":"2022-11-22T00:00:00.999648","MEAN_ANOMALY":"103.4488","FILE":"3666658","REF_FRAME":"TEME","GP_ID":"218435648","CENTER_NAME":"EARTH","TIME_SYSTEM":"UTC","LAUNCH_DATE":"2022-08-28","SEMIMAJOR_AXIS":"6880.091","MEAN_MOTION_DOT":"-0.01148703","OBJECT_NAME":"STARLINK-4597","CLASSIFICATION_TYPE":"U","ARG_OF_PERICENTER":"104.4579","MEAN_MOTION_DDOT":"0.0000000000000","INCLINATION":"53.2172","ELEMENT_SET_NO":"999","BSTAR":"-0.05499700000000","NORAD_CAT_ID":"53640","RA_OF_ASC_NODE":"227.6567"},{"MEAN_MOTION":"15.21589311","EPHEMERIS_TYPE":"0","OBJECT_TYPE":"PAYLOAD","MEAN_ELEMENT_THEORY":"SGP4","TLE_LINE2":"2 53641  53.2171 227.6276 0001412  81.0092 141.3087 15.21589311  1304","REV_AT_EPOCH":"130","DECAY_DATE":null,"SITE":"AFETR","FILE":"3666658","MEAN_ANOMALY":"141.3087","COUNTRY_CODE":"US","EPOCH":"2022-11-22T00:00:00.999648","CENTER_NAME":"EARTH","TIME_SYSTEM":"UTC","REF_FRAME":"TEME","GP_ID":"218435481","OBJECT_ID":"2022-104BF","APOAPSIS":"502.020","TLE_LINE1":"1 53641U 22104BF  22326.00001157 -.01147423  00000-0 -54445-1 0  9994","RCS_SIZE":"LARGE","PERIOD":"94.638","ECCENTRICITY":"0.00014120","PERIAPSIS":"500.077","NORAD_CAT_ID":"53641","BSTAR":"-0.05444500000000","ELEMENT_SET_NO":"999","RA_OF_ASC_NODE":"227.6276","OBJECT_NAME":"STARLINK-4588","MEAN_MOTION_DOT":"-0.01147423","SEMIMAJOR_AXIS":"6879.183","LAUNCH_DATE":"2022-08-28","INCLINATION":"53.2171","MEAN_MOTION_DDOT":"0.0000000000000","ARG_OF_PERICENTER":"81.0092","CLASSIFICATION_TYPE":"U"},{"OBJECT_TYPE":"PAYLOAD","MEAN_ELEMENT_THEORY":"SGP4","DECAY_DATE":null,"SITE":"AFWTR","REV_AT_EPOCH":"130","TLE_LINE2":"2 53648  97.6527 205.0329 0001788 112.6840  50.7157 15.01231487  1302","EPHEMERIS_TYPE":"0","MEAN_MOTION":"15.01231487","RA_OF_ASC_NODE":"205.0329","ELEMENT_SET_NO":"999","NORAD_CAT_ID":"53648","BSTAR":"0.00538560000000","ARG_OF_PERICENTER":"112.6840","MEAN_MOTION_DDOT":"0.0000000000000","CLASSIFICATION_TYPE":"U","INCLINATION":"97.6527","MEAN_MOTION_DOT":"0.00069751","SEMIMAJOR_AXIS":"6941.235","LAUNCH_DATE":"2022-08-31","OBJECT_NAME":"STARLINK-4622","REF_FRAME":"TEME","GP_ID":"218435317","TIME_SYSTEM":"UTC","CENTER_NAME":"EARTH","EPOCH":"2022-11-22T00:00:00.999648","COUNTRY_CODE":"US","MEAN_ANOMALY":"50.7157","FILE":"3666658","PERIOD":"95.921","RCS_SIZE":"LARGE","ECCENTRICITY":"0.00017880","PERIAPSIS":"561.859","OBJECT_ID":"2022-105A","APOAPSIS":"564.341","TLE_LINE1":"1 53648U 22105A   22326.00001157  .00069751  00000-0  53856-2 0  9992"},{"OBJECT_TYPE":"PAYLOAD","MEAN_ELEMENT_THEORY":"SGP4","REV_AT_EPOCH":"130","DECAY_DATE":null,"SITE":"AFWTR","TLE_LINE2":"2 53649  97.6546 204.9449 0001832 109.3239 333.9850 15.01253000  1301","EPHEMERIS_TYPE":"0","MEAN_MOTION":"15.01253000","RA_OF_ASC_NODE":"204.9449","NORAD_CAT_ID":"53649","BSTAR":"-0.00022089000000","ELEMENT_SET_NO":"999","INCLINATION":"97.6546","MEAN_MOTION_DDOT":"0.0000000000000","ARG_OF_PERICENTER":"109.3239","CLASSIFICATION_TYPE":"U","OBJECT_NAME":"STARLINK-4386","SEMIMAJOR_AXIS":"6941.168","MEAN_MOTION_DOT":"-0.00002895","LAUNCH_DATE":"2022-08-31","TIME_SYSTEM":"UTC","CENTER_NAME":"EARTH","GP_ID":"218435813","REF_FRAME":"TEME","FILE":"3666658","COUNTRY_CODE":"US","MEAN_ANOMALY":"333.9850","EPOCH":"2022-11-21T22:00:00.999936","OBJECT_ID":"2022-105B","TLE_LINE1":"1 53649U 22105B   22325.91667824 -.00002895  00000-0 -22089-3 0  9994","APOAPSIS":"564.305","PERIOD":"95.920","RCS_SIZE":"LARGE","ECCENTRICITY":"0.00018320","PERIAPSIS":"561.762"},{"REV_AT_EPOCH":"130","SITE":"AFWTR","DECAY_DATE":null,"TLE_LINE2":"2 53650  97.6545 204.9460 0001720 101.1843 352.0918 15.01258170  1302","MEAN_ELEMENT_THEORY":"SGP4","OBJECT_TYPE":"PAYLOAD","EPHEMERIS_TYPE":"0","MEAN_MOTION":"15.01258170","INCLINATION":"97.6545","CLASSIFICATION_TYPE":"U","MEAN_MOTION_DDOT":"0.0000000000000","ARG_OF_PERICENTER":"101.1843","OBJECT_NAME":"STARLINK-4380","LAUNCH_DATE":"2022-08-31","SEMIMAJOR_AXIS":"6941.152","MEAN_MOTION_DOT":"0.00006794","RA_OF_ASC_NODE":"204.9460","BSTAR":"0.00053306000000","NORAD_CAT_ID":"53650","ELEMENT_SET_NO":"999","TLE_LINE1":"1 53650U 22105C   22325.91667824  .00006794  00000-0  53306-3 0  9992","APOAPSIS":"564.211","OBJECT_ID":"2022-105C","PERIAPSIS":"561.824","RCS_SIZE":"LARGE","ECCENTRICITY":"0.00017200","PERIOD":"95.920","CENTER_NAME":"EARTH","TIME_SYSTEM":"UTC","REF_FRAME":"TEME","GP_ID":"218435977","FILE":"3666658","COUNTRY_CODE":"US","MEAN_ANOMALY":"352.0918","EPOCH":"2022-11-21T22:00:00.999936"},{"OBJECT_TYPE":"PAYLOAD","MEAN_ELEMENT_THEORY":"SGP4","TLE_LINE2":"2 53651  97.6542 204.9448 0001553 103.8777 359.4105 15.01269372  1300","DECAY_DATE":null,"SITE":"AFWTR","REV_AT_EPOCH":"130","MEAN_MOTION":"15.01269372","EPHEMERIS_TYPE":"0","ELEMENT_SET_NO":"999","NORAD_CAT_ID":"53651","BSTAR":"-0.00007738800000","RA_OF_ASC_NODE":"204.9448","MEAN_MOTION_DOT":"-0.00001053","SEMIMAJOR_AXIS":"6941.118","LAUNCH_DATE":"2022-08-31","OBJECT_NAME":"STARLINK-4388","ARG_OF_PERICENTER":"103.8777","MEAN_MOTION_DDOT":"0.0000000000000","CLASSIFICATION_TYPE":"U","INCLINATION":"97.6542","EPOCH":"2022-11-21T22:00:00.999936","COUNTRY_CODE":"US","MEAN_ANOMALY":"359.4105","FILE":"3666658","REF_FRAME":"TEME","GP_ID":"218436463","CENTER_NAME":"EARTH","TIME_SYSTEM":"UTC","RCS_SIZE":"LARGE","ECCENTRICITY":"0.00015530","PERIOD":"95.919","PERIAPSIS":"561.905","OBJECT_ID":"2022-105D","TLE_LINE1":"1 53651U 22105D   22325.91667824 -.00001053  00000-0 -77388-4 0  9995","APOAPSIS":"564.061"},{"NORAD_CAT_ID":"53652","BSTAR":"0.00017006000000","ELEMENT_SET_NO":"999","RA_OF_ASC_NODE":"204.9454","OBJECT_NAME":"STARLINK-4374","MEAN_MOTION_DOT":"0.00002126","SEMIMAJOR_AXIS":"6941.136","LAUNCH_DATE":"2022-08-31","INCLINATION":"97.6558","ARG_OF_PERICENTER":"81.6515","MEAN_MOTION_DDOT":"0.0000000000000","CLASSIFICATION_TYPE":"U","FILE":"3666658","EPOCH":"2022-11-21T22:00:00.999936","COUNTRY_CODE":"US","MEAN_ANOMALY":"31.6655","CENTER_NAME":"EARTH","TIME_SYSTEM":"UTC","GP_ID":"218435649","REF_FRAME":"TEME","OBJECT_ID":"2022-105E","TLE_LINE1":"1 53652U 22105E   22325.91667824  .00002126  00000-0  17006-3 0  9996","APOAPSIS":"564.233","PERIOD":"95.919","RCS_SIZE":"LARGE","ECCENTRICITY":"0.00017740","PERIAPSIS":"561.770","OBJECT_TYPE":"PAYLOAD","MEAN_ELEMENT_THEORY":"SGP4","TLE_LINE2":"2 53652  97.6558 204.9454 0001774  81.6515  31.6655 15.01263396  1302","REV_AT_EPOCH":"130","DECAY_DATE":null,"SITE":"AFWTR","MEAN_MOTION":"15.01263396","EPHEMERIS_TYPE":"0"}];
